TIANMU-1 08             
1 57400U 23101B   26066.00237819  .00000346  00000+0  14775-4 0  9993
2 57400  97.2717 118.7901 0006380 134.2174 225.9592 15.29204229146020
STARLINK-31684          
1 59492U 24071J   26067.81379809 -.00003934  00000+0 -13350-3 0  9994
2 59492  42.9980 352.3031 0000637 257.0512 103.0268 15.27581574107988
